     2.100          NAVIGATION                              RINEX VERSION / TYPE
fic2rin                                 10/17/2010 00:23:27 PGM / RUN BY / DATE
                                                            END OF HEADER
 4 10 10 16 23 59 44.0  .195728614926D-03  .954969436862D-11  .000000000000D+00
     .400000000000D+01  .355937500000D+02  .520878839552D-08  .223474435227D+01
     .184215605259D-05  .938616099302D-02  .855326652527D-05  .515376565742D+04
     .604784000000D+06 -.167638063431D-06 -.314020169353D+01 -.139698386192D-06
     .939043969808D+00  .204906250000D+03  .658730743191D+00 -.824534345165D-08
     .334299639208D-09  .100000000000D+01  .160500000000D+04  .000000000000D+00
     .240000000000D+01  .000000000000D+00 -.605359673500D-08  .400000000000D+01
     .599736000000D+06  .400000000000D+01
22 10 10 16 23 59 28.0  .160796567798D-03 -.909494701773D-12  .000000000000D+00
     .400000000000D+01  .843750000000D+00  .562451999812D-08  .906254928584D+00
     .875443220139D-07  .557201751508D-02  .536628067493D-05  .515371640778D+04
     .604768000000D+06 -.614672899246D-07 -.207006062707D+01  .447034835815D-07
     .933187013431D+00  .263812500000D+03 -.192808491024D+01 -.874464996406D-08
    -.207151485834D-09  .100000000000D+01  .160500000000D+04  .000000000000D+00
     .240000000000D+01  .000000000000D+00 -.176951289177D-07  .400000000000D+01
     .599886000000D+06  .400000000000D+01
25 10 10 16 23 59 28.0 -.460888259113D-04 -.204636307899D-11  .000000000000D+00
     .150000000000D+02 -.385000000000D+02  .461947813409D-08  .101892428549D+01
    -.197254121304D-05  .714669702575D-03  .428967177868D-05  .515375753021D+04
     .604768000000D+06  .558793544769D-07  .103188320589D+01  .260770320892D-07
     .960993162571D+00  .295750000000D+03  .196882719922D+01 -.833891877801D-08
    -.357157734196D-11  .100000000000D+01  .160500000000D+04  .100000000000D+01
     .240000000000D+01  .000000000000D+00  .465661287308D-08  .150000000000D+02
     .602736000000D+06  .400000000000D+01
18 10 10 16 23 59 28.0  .992445275187D-04  .227373675443D-11  .000000000000D+00
     .890000000000D+02  .250000000000D+00  .547522806523D-08  .180324503459D+01
    -.912696123123D-07  .118530869950D-01  .565871596336D-05  .515373178864D+04
     .604768000000D+06 -.298023223877D-06 -.207467086125D+01 -.987201929092D-07
     .935499518259D+00  .261031250000D+03 -.228702333611D+01 -.860142971264D-08
    -.210008747707D-09  .100000000000D+01  .160500000000D+04  .000000000000D+00
     .240000000000D+01  .000000000000D+00 -.107102096081D-07  .890000000000D+02
     .603636000000D+06  .400000000000D+01
